{
  "type": "FeatureCollection",
  "features": [
    {
      "type": "Feature",
      "properties": {
        "norad_id": 29740,
        "name": "FENGYUN 1C DEB",
        "group": "fengyun-1c-debris",
        "lat": -9.490755252216083,
        "lon": -167.2742845827455,
        "alt_km": 2125.942416028919,
        "timestamp": "2025-12-02T19:35:50.826778+00:00",
        "meta_object_name": "FENGYUN 1C DEB",
        "meta_object_id": "1999-025AE",
        "meta_epoch": "2025-12-02T07:44:03.886944",
        "meta_mean_motion": 12.0832443,
        "meta_eccentricity": 0.0976019,
        "meta_inclination": 99.0424,
        "meta_ra_of_asc_node": 190.8472,
        "meta_arg_of_pericenter": 219.5171,
        "meta_mean_anomaly": 133.0656,
        "meta_ephemeris_type": 0,
        "meta_classification_type": "U",
        "meta_norad_cat_id": 29740,
        "meta_element_set_no": 999,
        "meta_rev_at_epoch": 82809,
        "meta_bstar": 0.00031302,
        "meta_mean_motion_dot": 9.2e-07,
        "meta_mean_motion_ddot": 0,
        "tle_line1": "1 29740U 99025AE  25336.32226721  .00000092  00000+0  31302-3 0  9993",
        "tle_line2": "2 29740  99.0424 190.8472 0976019 219.5171 133.0656 12.08324430828099"
      },
      "geometry": {
        "type": "Point",
        "coordinates": [
          -167.2742845827455,
          -9.490755252216083
        ]
      }
    },
    {
      "type": "Feature",
      "properties": {
        "norad_id": 29741,
        "name": "FENGYUN 1C DEB",
        "group": "fengyun-1c-debris",
        "lat": 53.48346887322762,
        "lon": 46.5772307861764,
        "alt_km": 1024.409626321266,
        "timestamp": "2025-12-02T19:35:50.826789+00:00",
        "meta_object_name": "FENGYUN 1C DEB",
        "meta_object_id": "1999-025AF",
        "meta_epoch": "2025-12-01T15:17:16.551168",
        "meta_mean_motion": 12.00876139,
        "meta_eccentricity": 0.10231062,
        "meta_inclination": 99.1763,
        "meta_ra_of_asc_node": 213.124,
        "meta_arg_of_pericenter": 85.7129,
        "meta_mean_anomaly": 335.1775,
        "meta_ephemeris_type": 0,
        "meta_classification_type": "U",
        "meta_norad_cat_id": 29741,
        "meta_element_set_no": 999,
        "meta_rev_at_epoch": 52050,
        "meta_bstar": 0.0052602845,
        "meta_mean_motion_dot": 2.03e-05,
        "meta_mean_motion_ddot": 0,
        "tle_line1": "1 29741U 99025AF  25335.63699712  .00002030  00000+0  52603-2 0  9991",
        "tle_line2": "2 29741  99.1763 213.1240 1023106  85.7129 335.1775 12.00876139520508"
      },
      "geometry": {
        "type": "Point",
        "coordinates": [
          46.5772307861764,
          53.48346887322762
        ]
      }
    },
    {
      "type": "Feature",
      "properties": {
        "norad_id": 29748,
        "name": "FENGYUN 1C DEB",
        "group": "fengyun-1c-debris",
        "lat": 80.15018407587743,
        "lon": -174.82562011558167,
        "alt_km": 1382.468054490294,
        "timestamp": "2025-12-02T19:35:50.826799+00:00",
        "meta_object_name": "FENGYUN 1C DEB",
        "meta_object_id": "1999-025AN",
        "meta_epoch": "2025-11-30T18:42:42.024384",
        "meta_mean_motion": 11.89140875,
        "meta_eccentricity": 0.08151539,
        "meta_inclination": 99.8095,
        "meta_ra_of_asc_node": 268.7549,
        "meta_arg_of_pericenter": 29.765,
        "meta_mean_anomaly": 334.7306,
        "meta_ephemeris_type": 0,
        "meta_classification_type": "U",
        "meta_norad_cat_id": 29748,
        "meta_element_set_no": 999,
        "meta_rev_at_epoch": 78591,
        "meta_bstar": 0.20624146,
        "meta_mean_motion_dot": 0.00037005,
        "meta_mean_motion_ddot": 0,
        "tle_line1": "1 29748U 99025AN  25334.77965306  .00037005  00000+0  20624+0 0  9992",
        "tle_line2": "2 29748  99.8095 268.7549 0815153  29.7650 334.7306 11.89140875785915"
      },
      "geometry": {
        "type": "Point",
        "coordinates": [
          -174.82562011558167,
          80.15018407587743
        ]
      }
    },
    {
      "type": "Feature",
      "properties": {
        "norad_id": 29750,
        "name": "FENGYUN 1C DEB",
        "group": "fengyun-1c-debris",
        "lat": -22.812409550873504,
        "lon": 9.924704601074094,
        "alt_km": 840.5341825358055,
        "timestamp": "2025-12-02T19:35:50.826810+00:00",
        "meta_object_name": "FENGYUN 1C DEB",
        "meta_object_id": "1999-025AQ",
        "meta_epoch": "2025-12-02T01:13:21.503712",
        "meta_mean_motion": 14.09628567,
        "meta_eccentricity": 0.00354009,
        "meta_inclination": 98.7559,
        "meta_ra_of_asc_node": 5.4634,
        "meta_arg_of_pericenter": 332.3527,
        "meta_mean_anomaly": 81.5292,
        "meta_ephemeris_type": 0,
        "meta_classification_type": "U",
        "meta_norad_cat_id": 29750,
        "meta_element_set_no": 999,
        "meta_rev_at_epoch": 96923,
        "meta_bstar": 0.00026732787,
        "meta_mean_motion_dot": 4.28e-06,
        "meta_mean_motion_ddot": 0,
        "tle_line1": "1 29750U 99025AQ  25336.05094333  .00000428  00000+0  26733-3 0  9991",
        "tle_line2": "2 29750  98.7559   5.4634 0035400 332.3527  81.5292 14.09628567969231"
      },
      "geometry": {
        "type": "Point",
        "coordinates": [
          9.924704601074094,
          -22.812409550873504
        ]
      }
    },
    {
      "type": "Feature",
      "properties": {
        "norad_id": 29751,
        "name": "FENGYUN 1C DEB",
        "group": "fengyun-1c-debris",
        "lat": -24.76157816103039,
        "lon": 8.950505610523393,
        "alt_km": 881.3496103246571,
        "timestamp": "2025-12-02T19:35:50.826820+00:00",
        "meta_object_name": "FENGYUN 1C DEB",
        "meta_object_id": "1999-025AR",
        "meta_epoch": "2025-12-02T08:13:13.282176",
        "meta_mean_motion": 14.23616004,
        "meta_eccentricity": 0.0089436,
        "meta_inclination": 98.5425,
        "meta_ra_of_asc_node": 4.5147,
        "meta_arg_of_pericenter": 169.3217,
        "meta_mean_anomaly": 257.388,
        "meta_ephemeris_type": 0,
        "meta_classification_type": "U",
        "meta_norad_cat_id": 29751,
        "meta_element_set_no": 999,
        "meta_rev_at_epoch": 97925,
        "meta_bstar": 0.00021832,
        "meta_mean_motion_dot": 4.76e-06,
        "meta_mean_motion_ddot": 0,
        "tle_line1": "1 29751U 99025AR  25336.34251484  .00000476  00000+0  21832-3 0  9994",
        "tle_line2": "2 29751  98.5425   4.5147 0089436 169.3217 257.3880 14.23616004979251"
      },
      "geometry": {
        "type": "Point",
        "coordinates": [
          8.950505610523393,
          -24.76157816103039
        ]
      }
    },
    {
      "type": "Feature",
      "properties": {
        "norad_id": 29754,
        "name": "FENGYUN 1C DEB",
        "group": "fengyun-1c-debris",
        "lat": -81.07805106667927,
        "lon": 174.40822209412184,
        "alt_km": 810.1974905872921,
        "timestamp": "2025-12-02T19:35:50.826831+00:00",
        "meta_object_name": "FENGYUN 1C DEB",
        "meta_object_id": "1999-025AU",
        "meta_epoch": "2025-12-02T06:44:56.593248",
        "meta_mean_motion": 14.19080083,
        "meta_eccentricity": 0.0035501,
        "meta_inclination": 98.8846,
        "meta_ra_of_asc_node": 78.9948,
        "meta_arg_of_pericenter": 269.5355,
        "meta_mean_anomaly": 146.2917,
        "meta_ephemeris_type": 0,
        "meta_classification_type": "U",
        "meta_norad_cat_id": 29754,
        "meta_element_set_no": 999,
        "meta_rev_at_epoch": 97206,
        "meta_bstar": 0.0012522,
        "meta_mean_motion_dot": 2.589e-05,
        "meta_mean_motion_ddot": 0,
        "tle_line1": "1 29754U 99025AU  25336.28121057  .00002589  00000+0  12522-2 0  9994",
        "tle_line2": "2 29754  98.8846  78.9948 0035501 269.5355 146.2917 14.19080083972064"
      },
      "geometry": {
        "type": "Point",
        "coordinates": [
          174.40822209412184,
          -81.07805106667927
        ]
      }
    },
    {
      "type": "Feature",
      "properties": {
        "norad_id": 29758,
        "name": "FENGYUN 1C DEB",
        "group": "fengyun-1c-debris",
        "lat": 6.2244425815906546,
        "lon": -86.84643624813498,
        "alt_km": 772.1657320314125,
        "timestamp": "2025-12-02T19:35:50.826841+00:00",
        "meta_object_name": "FENGYUN 1C DEB",
        "meta_object_id": "1999-025AY",
        "meta_epoch": "2025-12-02T07:22:54.693408",
        "meta_mean_motion": 14.40709675,
        "meta_eccentricity": 0.0020244,
        "meta_inclination": 98.8556,
        "meta_ra_of_asc_node": 91.6526,
        "meta_arg_of_pericenter": 340.1313,
        "meta_mean_anomaly": 75.1445,
        "meta_ephemeris_type": 0,
        "meta_classification_type": "U",
        "meta_norad_cat_id": 29758,
        "meta_element_set_no": 999,
        "meta_rev_at_epoch": 97521,
        "meta_bstar": 0.0031008,
        "meta_mean_motion_dot": 9.898e-05,
        "meta_mean_motion_ddot": 0,
        "tle_line1": "1 29758U 99025AY  25336.30757747  .00009898  00000+0  31008-2 0  9992",
        "tle_line2": "2 29758  98.8556  91.6526 0020244 340.1313  75.1445 14.40709675975213"
      },
      "geometry": {
        "type": "Point",
        "coordinates": [
          -86.84643624813498,
          6.2244425815906546
        ]
      }
    }
  ]
}